{
  "type": "FeatureCollection",
  "features": [
    {
      "type": "Feature",
      "properties": {
        "norad_id": 66618,
        "name": "STARLINK-35970",
        "group": "last-30-days",
        "lat": 53.0010539804677,
        "lon": -120.34086238875479,
        "alt_km": 410.9181862752448,
        "timestamp": "2025-12-19T08:58:48.082567+00:00",
        "meta_object_name": "STARLINK-35970",
        "meta_object_id": "2025-271B",
        "meta_epoch": "2025-12-18T21:46:16.468320",
        "meta_mean_motion": 15.49335101,
        "meta_eccentricity": 7.172e-05,
        "meta_inclination": 53.159,
        "meta_ra_of_asc_node": 157.6323,
        "meta_arg_of_pericenter": 82.1987,
        "meta_mean_anomaly": 277.9103,
        "meta_ephemeris_type": 0,
        "meta_classification_type": "U",
        "meta_norad_cat_id": 66618,
        "meta_element_set_no": 999,
        "meta_rev_at_epoch": 516,
        "meta_bstar": 0.00091874022,
        "meta_mean_motion_dot": 0.0005103,
        "meta_mean_motion_ddot": 0,
        "tle_line1": "1 66618U 25271B   25352.90713505  .00051030  00000+0  91874-3 0  9991",
        "tle_line2": "2 66618  53.1590 157.6323 0000717  82.1987 277.9103 15.49335101  5162"
      },
      "geometry": {
        "type": "Point",
        "coordinates": [
          -120.34086238875479,
          53.0010539804677
        ]
      }
    },
    {
      "type": "Feature",
      "properties": {
        "norad_id": 66619,
        "name": "STARLINK-35951",
        "group": "last-30-days",
        "lat": 31.534723774998852,
        "lon": -177.1154789215858,
        "alt_km": 414.5352812615729,
        "timestamp": "2025-12-19T08:58:48.082577+00:00",
        "meta_object_name": "STARLINK-35951",
        "meta_object_id": "2025-271C",
        "meta_epoch": "2025-12-18T21:58:02.908416",
        "meta_mean_motion": 15.49330751,
        "meta_eccentricity": 3.025e-05,
        "meta_inclination": 53.1595,
        "meta_ra_of_asc_node": 157.6881,
        "meta_arg_of_pericenter": 13.8139,
        "meta_mean_anomaly": 346.2878,
        "meta_ephemeris_type": 0,
        "meta_classification_type": "U",
        "meta_norad_cat_id": 66619,
        "meta_element_set_no": 999,
        "meta_rev_at_epoch": 516,
        "meta_bstar": 0.00049867102,
        "meta_mean_motion_dot": 0.00027404,
        "meta_mean_motion_ddot": 0,
        "tle_line1": "1 66619U 25271C   25352.91531144  .00027404  00000+0  49867-3 0  9993",
        "tle_line2": "2 66619  53.1595 157.6881 0000302  13.8139 346.2878 15.49330751  5162"
      },
      "geometry": {
        "type": "Point",
        "coordinates": [
          -177.1154789215858,
          31.534723774998852
        ]
      }
    },
    {
      "type": "Feature",
      "properties": {
        "norad_id": 66620,
        "name": "STARLINK-35936",
        "group": "last-30-days",
        "lat": 27.382219233296286,
        "lon": 178.35787509524613,
        "alt_km": 414.7179717571753,
        "timestamp": "2025-12-19T08:58:48.082588+00:00",
        "meta_object_name": "STARLINK-35936",
        "meta_object_id": "2025-271D",
        "meta_epoch": "2025-12-18T20:26:38.659776",
        "meta_mean_motion": 15.49341209,
        "meta_eccentricity": 0.0001202,
        "meta_inclination": 53.1598,
        "meta_ra_of_asc_node": 158.0059,
        "meta_arg_of_pericenter": 74.9181,
        "meta_mean_anomaly": 285.1961,
        "meta_ephemeris_type": 0,
        "meta_classification_type": "U",
        "meta_norad_cat_id": 66620,
        "meta_element_set_no": 999,
        "meta_rev_at_epoch": 515,
        "meta_bstar": 0.00062165334,
        "meta_mean_motion_dot": 0.00034317,
        "meta_mean_motion_ddot": 0,
        "tle_line1": "1 66620U 25271D   25352.85183634  .00034317  00000+0  62165-3 0  9992",
        "tle_line2": "2 66620  53.1598 158.0059 0001202  74.9181 285.1961 15.49341209  5157"
      },
      "geometry": {
        "type": "Point",
        "coordinates": [
          178.35787509524613,
          27.382219233296286
        ]
      }
    },
    {
      "type": "Feature",
      "properties": {
        "norad_id": 66621,
        "name": "STARLINK-35847",
        "group": "last-30-days",
        "lat": 53.13932041268197,
        "lon": -114.5361486415395,
        "alt_km": 410.7750436417673,
        "timestamp": "2025-12-19T08:58:48.082598+00:00",
        "meta_object_name": "STARLINK-35847",
        "meta_object_id": "2025-271E",
        "meta_epoch": "2025-12-18T21:45:21.671712",
        "meta_mean_motion": 15.49313514,
        "meta_eccentricity": 0.00010846,
        "meta_inclination": 53.159,
        "meta_ra_of_asc_node": 157.6274,
        "meta_arg_of_pericenter": 88.6607,
        "meta_mean_anomaly": 271.4526,
        "meta_ephemeris_type": 0,
        "meta_classification_type": "U",
        "meta_norad_cat_id": 66621,
        "meta_element_set_no": 999,
        "meta_rev_at_epoch": 516,
        "meta_bstar": 0.00049904928,
        "meta_mean_motion_dot": 0.00027408,
        "meta_mean_motion_ddot": 0,
        "tle_line1": "1 66621U 25271E   25352.90650083  .00027408  00000+0  49905-3 0  9996",
        "tle_line2": "2 66621  53.1590 157.6274 0001084  88.6607 271.4526 15.49313514  5161"
      },
      "geometry": {
        "type": "Point",
        "coordinates": [
          -114.5361486415395,
          53.13932041268197
        ]
      }
    },
    {
      "type": "Feature",
      "properties": {
        "norad_id": 66622,
        "name": "STARLINK-35950",
        "group": "last-30-days",
        "lat": -15.750167512285243,
        "lon": 143.40932087556465,
        "alt_km": 450.0653580757571,
        "timestamp": "2025-12-19T08:58:48.082613+00:00",
        "meta_object_name": "STARLINK-35950",
        "meta_object_id": "2025-271F",
        "meta_epoch": "2025-12-19T00:00:02.000160",
        "meta_mean_motion": 15.39597783,
        "meta_eccentricity": 0.00011331,
        "meta_inclination": 53.1597,
        "meta_ra_of_asc_node": 157.3799,
        "meta_arg_of_pericenter": 80.625,
        "meta_mean_anomaly": 344.75,
        "meta_ephemeris_type": 0,
        "meta_classification_type": "U",
        "meta_norad_cat_id": 66622,
        "meta_element_set_no": 999,
        "meta_rev_at_epoch": 524,
        "meta_bstar": 0.00091036518,
        "meta_mean_motion_dot": 0.0003616,
        "meta_mean_motion_ddot": 0,
        "tle_line1": "1 66622U 25271F   25353.00002315  .00036160  00000+0  91037-3 0  9996",
        "tle_line2": "2 66622  53.1597 157.3799 0001133  80.6250 344.7500 15.39597783  5245"
      },
      "geometry": {
        "type": "Point",
        "coordinates": [
          143.40932087556465,
          -15.750167512285243
        ]
      }
    },
    {
      "type": "Feature",
      "properties": {
        "norad_id": 66623,
        "name": "STARLINK-35920",
        "group": "last-30-days",
        "lat": -49.25898004583917,
        "lon": 95.21569154592598,
        "alt_km": 452.51566798595286,
        "timestamp": "2025-12-19T08:58:48.082623+00:00",
        "meta_object_name": "STARLINK-35920",
        "meta_object_id": "2025-271G",
        "meta_epoch": "2025-12-19T00:00:02.000160",
        "meta_mean_motion": 15.39597243,
        "meta_eccentricity": 8.467e-05,
        "meta_inclination": 53.1599,
        "meta_ra_of_asc_node": 157.4805,
        "meta_arg_of_pericenter": 98.5783,
        "meta_mean_anomaly": 275.3024,
        "meta_ephemeris_type": 0,
        "meta_classification_type": "U",
        "meta_norad_cat_id": 66623,
        "meta_element_set_no": 999,
        "meta_rev_at_epoch": 524,
        "meta_bstar": 0.00083796436,
        "meta_mean_motion_dot": 0.00033239,
        "meta_mean_motion_ddot": 0,
        "tle_line1": "1 66623U 25271G   25353.00002315  .00033239  00000+0  83796-3 0  9994",
        "tle_line2": "2 66623  53.1599 157.4805 0000846  98.5783 275.3024 15.39597243  5247"
      },
      "geometry": {
        "type": "Point",
        "coordinates": [
          95.21569154592598,
          -49.25898004583917
        ]
      }
    },
    {
      "type": "Feature",
      "properties": {
        "norad_id": 66624,
        "name": "STARLINK-35927",
        "group": "last-30-days",
        "lat": 34.16035044673708,
        "lon": -173.9294693800584,
        "alt_km": 413.7767806164329,
        "timestamp": "2025-12-19T08:58:48.082633+00:00",
        "meta_object_name": "STARLINK-35927",
        "meta_object_id": "2025-271H",
        "meta_epoch": "2025-12-19T00:00:02.000160",
        "meta_mean_motion": 15.49279218,
        "meta_eccentricity": 0.00011873,
        "meta_inclination": 53.1587,
        "meta_ra_of_asc_node": 157.2777,
        "meta_arg_of_pericenter": 81.6214,
        "meta_mean_anomaly": 35.0594,
        "meta_ephemeris_type": 0,
        "meta_classification_type": "U",
        "meta_norad_cat_id": 66624,
        "meta_element_set_no": 999,
        "meta_rev_at_epoch": 524,
        "meta_bstar": 0.00088484238,
        "meta_mean_motion_dot": 0.00049021,
        "meta_mean_motion_ddot": 0,
        "tle_line1": "1 66624U 25271H   25353.00002315  .00049021  00000+0  88484-3 0  9990",
        "tle_line2": "2 66624  53.1587 157.2777 0001187  81.6214  35.0594 15.49279218  5245"
      },
      "geometry": {
        "type": "Point",
        "coordinates": [
          -173.9294693800584,
          34.16035044673708
        ]
      }
    }
  ]
}